NUSAT-47                
1 66743U 25276CF  26197.64813157  .00003003  00000+0  14017-3 0  9999
2 66743  97.4180 270.7911 0000629 190.5576 169.5646 15.20593869 34905
NUSAT-53 (JANE GOODALL) 
1 68432U 26067S   26197.45344656  .00002835  00000+0  13930-3 0  9992
2 68432  97.4578 155.5567 0000470 338.0771  22.0443 15.18857016 16384
NUSAT-54 (BRANCA MARQU*)
1 68442U 26067AC  26197.84127895  .00002795  00000+0  14078-3 0  9999
2 68442  97.4561 155.7801 0003643 354.6091   5.5103 15.18005399 16438
