{"fetched_at":"2026-07-17T06:38:26.771Z","source":"https://celestrak.org/NORAD/elements/gp.php?NAME=NUSAT&FORMAT=JSON","constellation":"satellogic","records":[{"OBJECT_NAME":"NUSAT-47","OBJECT_ID":"2025-276CF","EPOCH":"2026-07-16T15:33:18.567648","CLASSIFICATION_TYPE":"U","MEAN_MOTION":15.20593869,"ECCENTRICITY":0.0000629,"INCLINATION":97.418,"RA_OF_ASC_NODE":270.7911,"ARG_OF_PERICENTER":190.5576,"MEAN_ANOMALY":169.5646,"EPHEMERIS_TYPE":0,"NORAD_CAT_ID":66743,"ELEMENT_SET_NO":999,"REV_AT_EPOCH":3490,"BSTAR":0.00014017,"MEAN_MOTION_DOT":0.00003003,"MEAN_MOTION_DDOT":0},{"OBJECT_NAME":"NUSAT-53 (JANE GOODALL)","OBJECT_ID":"2026-067S","EPOCH":"2026-07-16T10:52:57.782784","CLASSIFICATION_TYPE":"U","MEAN_MOTION":15.18857016,"ECCENTRICITY":0.000047,"INCLINATION":97.4578,"RA_OF_ASC_NODE":155.5567,"ARG_OF_PERICENTER":338.0771,"MEAN_ANOMALY":22.0443,"EPHEMERIS_TYPE":0,"NORAD_CAT_ID":68432,"ELEMENT_SET_NO":999,"REV_AT_EPOCH":1638,"BSTAR":0.0001393,"MEAN_MOTION_DOT":0.00002835,"MEAN_MOTION_DDOT":0},{"OBJECT_NAME":"NUSAT-54 (BRANCA MARQUES)","OBJECT_ID":"2026-067AC","EPOCH":"2026-07-16T20:11:26.501280","CLASSIFICATION_TYPE":"U","MEAN_MOTION":15.18005399,"ECCENTRICITY":0.0003643,"INCLINATION":97.4561,"RA_OF_ASC_NODE":155.7801,"ARG_OF_PERICENTER":354.6091,"MEAN_ANOMALY":5.5103,"EPHEMERIS_TYPE":0,"NORAD_CAT_ID":68442,"ELEMENT_SET_NO":999,"REV_AT_EPOCH":1643,"BSTAR":0.00014078,"MEAN_MOTION_DOT":0.00002795,"MEAN_MOTION_DDOT":0}]}
